{"type": "FeatureCollection", "features": [ {"type": "Feature", "properties": {"norad_id": 30224, "name": "FENGYUN 1C DEB", "group": "fengyun-1c-debris", "lat": 28.28608313380831, "lon": -154.01902705629294, "alt_km": 1001.6734265622999, "timestamp": "2025-12-08T03:50:07.271943+00:00", "meta": {"OBJECT_NAME": "FENGYUN 1C DEB", "OBJECT_ID": "1999-025WH", "EPOCH": "2025-12-07T01:20:58.002432", "MEAN_MOTION": 13.89859085, "ECCENTRICITY": 0.01113317, "INCLINATION": 99.4845, "RA_OF_ASC_NODE": 19.6954, "ARG_OF_PERICENTER": 358.5675, "MEAN_ANOMALY": 33.2874, "EPHEMERIS_TYPE": 0, "CLASSIFICATION_TYPE": "U", "NORAD_CAT_ID": 30224, "ELEMENT_SET_NO": 999, "REV_AT_EPOCH": 95662, "BSTAR": 0.00055544199, "MEAN_MOTION_DOT": 6.71e-06, "MEAN_MOTION_DDOT": 0}, "tle": {"line1": "1 30224U 99025WH  25341.05622688  .00000671  00000+0  55544-3 0  9997", "line2": "2 30224  99.4845  19.6954 0111331 358.5675  33.2874 13.89859085956626"}}, "geometry": {"type": "Point", "coordinates": [-154.01902705629294, 28.28608313380831]}}, {"type": "Feature", "properties": {"norad_id": 30225, "name": "FENGYUN 1C DEB", "group": "fengyun-1c-debris", "lat": -79.28502858370197, "lon": 135.40962404449968, "alt_km": 919.011396782872, "timestamp": "2025-12-08T03:50:07.271953+00:00", "meta": {"OBJECT_NAME": "FENGYUN 1C DEB", "OBJECT_ID": "1999-025WJ", "EPOCH": "2025-12-07T01:16:49.808064", "MEAN_MOTION": 14.15178392, "ECCENTRICITY": 0.01005228, "INCLINATION": 98.6604, "RA_OF_ASC_NODE": 7.9898, "ARG_OF_PERICENTER": 102.0637, "MEAN_ANOMALY": 287.4779, "EPHEMERIS_TYPE": 0, "CLASSIFICATION_TYPE": "U", "NORAD_CAT_ID": 30225, "ELEMENT_SET_NO": 999, "REV_AT_EPOCH": 97456, "BSTAR": 0.00027192281, "MEAN_MOTION_DOT": 5.13e-06, "MEAN_MOTION_DDOT": 0}, "tle": {"line1": "1 30225U 99025WJ  25341.05335426  .00000513  00000+0  27192-3 0  9992", "line2": "2 30225  98.6604   7.9898 0100522 102.0637 287.4779 14.15178392974563"}}, "geometry": {"type": "Point", "coordinates": [135.40962404449968, -79.28502858370197]}}, {"type": "Feature", "properties": {"norad_id": 30229, "name": "FENGYUN 1C DEB", "group": "fengyun-1c-debris", "lat": 62.55572756571654, "lon": -120.73872228736661, "alt_km": 672.7433317062996, "timestamp": "2025-12-08T03:50:07.271962+00:00", "meta": {"OBJECT_NAME": "FENGYUN 1C DEB", "OBJECT_ID": "1999-025WN", "EPOCH": "2025-12-07T02:46:55.587360", "MEAN_MOTION": 14.6039838, "ECCENTRICITY": 0.0037807, "INCLINATION": 99.0618, "RA_OF_ASC_NODE": 40.2234, "ARG_OF_PERICENTER": 57.8527, "MEAN_ANOMALY": 332.6954, "EPHEMERIS_TYPE": 0, "CLASSIFICATION_TYPE": "U", "NORAD_CAT_ID": 30229, "ELEMENT_SET_NO": 999, "REV_AT_EPOCH": 98844, "BSTAR": 0.0029675882, "MEAN_MOTION_DOT": 0.00014482, "MEAN_MOTION_DDOT": 0}, "tle": {"line1": "1 30229U 99025WN  25341.11592115  .00014482  00000+0  29676-2 0  9991", "line2": "2 30229  99.0618  40.2234 0037807  57.8527 332.6954 14.60398380988442"}}, "geometry": {"type": "Point", "coordinates": [-120.73872228736661, 62.55572756571654]}}, {"type": "Feature", "properties": {"norad_id": 30231, "name": "FENGYUN 1C DEB", "group": "fengyun-1c-debris", "lat": 64.89688699264312, "lon": 7.682331831527728, "alt_km": 762.3190874001893, "timestamp": "2025-12-08T03:50:07.271972+00:00", "meta": {"OBJECT_NAME": "FENGYUN 1C DEB", "OBJECT_ID": "1999-025WQ", "EPOCH": "2025-12-07T02:06:42.655680", "MEAN_MOTION": 14.11625199, "ECCENTRICITY": 0.01287304, "INCLINATION": 98.8056, "RA_OF_ASC_NODE": 25.9511, "ARG_OF_PERICENTER": 45.2587, "MEAN_ANOMALY": 336.8221, "EPHEMERIS_TYPE": 0, "CLASSIFICATION_TYPE": "U", "NORAD_CAT_ID": 30231, "ELEMENT_SET_NO": 999, "REV_AT_EPOCH": 96940, "BSTAR": 0.00088114138, "MEAN_MOTION_DOT": 1.689e-05, "MEAN_MOTION_DDOT": 0}, "tle": {"line1": "1 30231U 99025WQ  25341.08799370  .00001689  00000+0  88114-3 0  9990", "line2": "2 30231  98.8056  25.9511 0128730  45.2587 336.8221 14.11625199969404"}}, "geometry": {"type": "Point", "coordinates": [7.682331831527728, 64.89688699264312]}}, {"type": "Feature", "properties": {"norad_id": 30232, "name": "FENGYUN 1C DEB", "group": "fengyun-1c-debris", "lat": -49.78509988145244, "lon": -8.356765196739415, "alt_km": 754.1249556938574, "timestamp": "2025-12-08T03:50:07.271982+00:00", "meta": {"OBJECT_NAME": "FENGYUN 1C DEB", "OBJECT_ID": "1999-025WR", "EPOCH": "2025-12-07T07:53:52.335744", "MEAN_MOTION": 14.63528608, "ECCENTRICITY": 0.01363472, "INCLINATION": 98.6932, "RA_OF_ASC_NODE": 181.193, "ARG_OF_PERICENTER": 6.4929, "MEAN_ANOMALY": 170.8416, "EPHEMERIS_TYPE": 0, "CLASSIFICATION_TYPE": "U", "NORAD_CAT_ID": 30232, "ELEMENT_SET_NO": 999, "REV_AT_EPOCH": 99672, "BSTAR": 0.001006642, "MEAN_MOTION_DOT": 5.918e-05, "MEAN_MOTION_DDOT": 0}, "tle": {"line1": "1 30232U 99025WR  25341.32907796  .00005918  00000+0  10066-2 0  9990", "line2": "2 30232  98.6932 181.1930 0136347   6.4929 170.8416 14.63528608996729"}}, "geometry": {"type": "Point", "coordinates": [-8.356765196739415, -49.78509988145244]}}, {"type": "Feature", "properties": {"norad_id": 30234, "name": "FENGYUN 1C DEB", "group": "fengyun-1c-debris", "lat": -3.6399055930229145, "lon": 172.5185400407658, "alt_km": 843.6615703911311, "timestamp": "2025-12-08T03:50:07.271992+00:00", "meta": {"OBJECT_NAME": "FENGYUN 1C DEB", "OBJECT_ID": "1999-025WT", "EPOCH": "2025-12-07T06:41:42.873216", "MEAN_MOTION": 14.16853654, "ECCENTRICITY": 0.00670902, "INCLINATION": 98.6339, "RA_OF_ASC_NODE": 352.2174, "ARG_OF_PERICENTER": 90.6376, "MEAN_ANOMALY": 281.8208, "EPHEMERIS_TYPE": 0, "CLASSIFICATION_TYPE": "U", "NORAD_CAT_ID": 30234, "ELEMENT_SET_NO": 999, "REV_AT_EPOCH": 97379, "BSTAR": 0.0005512018, "MEAN_MOTION_DOT": 1.087e-05, "MEAN_MOTION_DDOT": 0}, "tle": {"line1": "1 30234U 99025WT  25341.27896844  .00001087  00000+0  55120-3 0  9991", "line2": "2 30234  98.6339 352.2174 0067090  90.6376 281.8208 14.16853654973796"}}, "geometry": {"type": "Point", "coordinates": [172.5185400407658, -3.6399055930229145]}}, {"type": "Feature", "properties": {"norad_id": 30235, "name": "FENGYUN 1C DEB", "group": "fengyun-1c-debris", "lat": -78.4144212976724, "lon": 49.15740044783097, "alt_km": 770.8498520789708, "timestamp": "2025-12-08T03:50:07.272002+00:00", "meta": {"OBJECT_NAME": "FENGYUN 1C DEB", "OBJECT_ID": "1999-025WU", "EPOCH": "2025-12-07T07:50:54.133152", "MEAN_MOTION": 14.08767504, "ECCENTRICITY": 0.01532685, "INCLINATION": 98.7498, "RA_OF_ASC_NODE": 359.6519, "ARG_OF_PERICENTER": 253.9301, "MEAN_ANOMALY": 121.739, "EPHEMERIS_TYPE": 0, "CLASSIFICATION_TYPE": "U", "NORAD_CAT_ID": 30235, "ELEMENT_SET_NO": 999, "REV_AT_EPOCH": 96817, "BSTAR": 0.00065240239, "MEAN_MOTION_DOT": 1.21e-05, "MEAN_MOTION_DDOT": 0}, "tle": {"line1": "1 30235U 99025WU  25341.32701543  .00001210  00000+0  65240-3 0  9991", "line2": "2 30235  98.7498 359.6519 0153268 253.9301 121.7390 14.08767504968172"}}, "geometry": {"type": "Point", "coordinates": [49.15740044783097, -78.4144212976724]}}, {"type": "Feature", "properties": {"norad_id": 30237, "name": "FENGYUN 1C DEB", "group": "fengyun-1c-debris", "lat": 41.68228582252236, "lon": 76.81105522770423, "alt_km": 751.2875605559484, "timestamp": "2025-12-08T03:50:07.272012+00:00", "meta": {"OBJECT_NAME": "FENGYUN 1C DEB", "OBJECT_ID": "1999-025WW", "EPOCH": "2025-12-06T20:34:08.690592", "MEAN_MOTION": 14.40757238, "ECCENTRICITY": 0.00135268, "INCLINATION": 98.8267, "RA_OF_ASC_NODE": 83.4201, "ARG_OF_PERICENTER": 323.3027, "MEAN_ANOMALY": 165.6438, "EPHEMERIS_TYPE": 0, "CLASSIFICATION_TYPE": "U", "NORAD_CAT_ID": 30237, "ELEMENT_SET_NO": 999, "REV_AT_EPOCH": 97613, "BSTAR": 0.0041421869, "MEAN_MOTION_DOT": 0.0001324, "MEAN_MOTION_DDOT": 0}, "tle": {"line1": "1 30237U 99025WW  25340.85704503  .00013240  00000+0  41422-2 0  9990", "line2": "2 30237  98.8267  83.4201 0013526 323.3027 165.6438 14.40757238976132"}}, "geometry": {"type": "Point", "coordinates": [76.81105522770423, 41.68228582252236]}}, {"type": "Feature", "properties": {"norad_id": 30239, "name": "FENGYUN 1C DEB", "group": "fengyun-1c-debris", "lat": -21.915055121399927, "lon": -51.74203028086083, "alt_km": 3038.290120779221, "timestamp": "2025-12-08T03:50:07.272024+00:00", "meta": {"OBJECT_NAME": "FENGYUN 1C DEB", "OBJECT_ID": "1999-025WY", "EPOCH": "2025-12-06T16:58:44.100768", "MEAN_MOTION": 11.38043095, "ECCENTRICITY": 0.1345849, "INCLINATION": 99.5908, "RA_OF_ASC_NODE": 131.1843, "ARG_OF_PERICENTER": 41.2909, "MEAN_ANOMALY": 328.2386, "EPHEMERIS_TYPE": 0, "CLASSIFICATION_TYPE": "U", "NORAD_CAT_ID": 30239, "ELEMENT_SET_NO": 999, "REV_AT_EPOCH": 54466, "BSTAR": 0.016687802, "MEAN_MOTION_DOT": 5.519e-05, "MEAN_MOTION_DDOT": 0}, "tle": {"line1": "1 30239U 99025WY  25340.70745487  .00005519  00000+0  16688-1 0  9997", "line2": "2 30239  99.5908 131.1843 1345849  41.2909 328.2386 11.38043095544660"}}, "geometry": {"type": "Point", "coordinates": [-51.74203028086083, -21.915055121399927]}}, {"type": "Feature", "properties": {"norad_id": 30241, "name": "FENGYUN 1C DEB", "group": "fengyun-1c-debris", "lat": 51.293013307578555, "lon": -53.43385452960529, "alt_km": 767.4163780795243, "timestamp": "2025-12-08T03:50:07.272053+00:00", "meta": {"OBJECT_NAME": "FENGYUN 1C DEB", "OBJECT_ID": "1999-025XA", "EPOCH": "2025-12-06T22:49:45.333696", "MEAN_MOTION": 14.09536962, "ECCENTRICITY": 0.01468346, "INCLINATION": 99.1483, "RA_OF_ASC_NODE": 113.7378, "ARG_OF_PERICENTER": 97.1947, "MEAN_ANOMALY": 20.1836, "EPHEMERIS_TYPE": 0, "CLASSIFICATION_TYPE": "U", "NORAD_CAT_ID": 30241, "ELEMENT_SET_NO": 999, "REV_AT_EPOCH": 96830, "BSTAR": 0.00044357352, "MEAN_MOTION_DOT": 8.13e-06, "MEAN_MOTION_DDOT": 0}, "tle": {"line1": "1 30241U 99025XA  25340.95121914  .00000813  00000+0  44357-3 0  9998", "line2": "2 30241  99.1483 113.7378 0146834  97.1947  20.1836 14.09536962968300"}}, "geometry": {"type": "Point", "coordinates": [-53.43385452960529, 51.293013307578555]}}]}